{
"type": "FeatureCollection",
"name": "spatial_basins",
"crs": { "type": "name", "properties": { "name": "urn:ogc:def:crs:OGC:1.3:CRS84" } },
"features": [
{ "type": "Feature", "properties": { "basin": "Broad", "huc8_units": 1, "huc8_codes": "03060104", "area_sqkm": 3894.03, "metro_area_sqkm": 5.6607351634899032, "metro_share_pct": 0.1453695827584765 }, "geometry": { "type": "MultiPolygon", "coordinates": [ [ [ [ -83.3854, 34.5923 ], [ -83.3752, 34.5777 ], [ -83.3597, 34.5834 ], [ -83.3433, 34.5761 ], [ -83.2905, 34.5275 ], [ -83.1932, 34.5032 ], [ -83.163, 34.4579 ], [ -83.1409, 34.4456 ], [ -83.1248, 34.4487 ], [ -83.1082, 34.441 ], [ -83.0947, 34.4178 ], [ -83.1058, 34.3956 ], [ -83.0841, 34.3927 ], [ -83.0789, 34.381 ], [ -83.0865, 34.3635 ], [ -83.112, 34.3491 ], [ -83.1028, 34.334 ], [ -83.1109, 34.3196 ], [ -83.1111, 34.2813 ], [ -83.0936, 34.2755 ], [ -83.0806, 34.2603 ], [ -83.0709, 34.243 ], [ -83.0742, 34.232 ], [ -83.0474, 34.2263 ], [ -83.0319, 34.2031 ], [ -82.9891, 34.197 ], [ -82.9615, 34.1825 ], [ -82.9307, 34.1502 ], [ -82.915, 34.149 ], [ -82.8894, 34.123 ], [ -82.854, 34.106 ], [ -82.8464, 34.0874 ], [ -82.8314, 34.0934 ], [ -82.778, 34.0907 ], [ -82.7604, 34.0863 ], [ -82.7532, 34.0683 ], [ -82.7145, 34.0596 ], [ -82.6833, 34.0668 ], [ -82.6522, 34.0613 ], [ -82.619, 34.0263 ], [ -82.6006, 33.9866 ], [ -82.5722, 33.9639 ], [ -82.583, 33.9564 ], [ -82.6138, 33.9664 ], [ -82.6407, 33.9594 ], [ -82.6717, 33.9658 ], [ -82.6945, 33.959 ], [ -82.7052, 33.9464 ], [ -82.7252, 33.9451 ], [ -82.7307, 33.9216 ], [ -82.7492, 33.913 ], [ -82.7358, 33.8819 ], [ -82.7435, 33.8497 ], [ -82.7715, 33.8142 ], [ -82.7902, 33.8122 ], [ -82.8248, 33.7845 ], [ -82.8544, 33.7809 ], [ -82.8794, 33.7894 ], [ -82.915, 33.7848 ], [ -82.9638, 33.7515 ], [ -82.9706, 33.722 ], [ -83.001, 33.7311 ], [ -83.0387, 33.7584 ], [ -83.0839, 33.76 ], [ -83.1103, 33.7839 ], [ -83.1318, 33.7777 ], [ -83.1579, 33.7898 ], [ -83.1711, 33.8307 ], [ -83.1561, 33.8601 ], [ -83.1575, 33.8862 ], [ -83.1664, 33.8938 ], [ -83.1912, 33.8912 ], [ -83.2106, 33.8973 ], [ -83.2521, 33.9547 ], [ -83.2742, 33.9613 ], [ -83.299, 33.9855 ], [ -83.2971, 33.9934 ], [ -83.3186, 34.0239 ], [ -83.3172, 34.0412 ], [ -83.3267, 34.0479 ], [ -83.3129, 34.075 ], [ -83.3305, 34.0969 ], [ -83.3258, 34.1104 ], [ -83.3529, 34.1362 ], [ -83.3673, 34.175 ], [ -83.4095, 34.2026 ], [ -83.4456, 34.191 ], [ -83.4557, 34.2044 ], [ -83.48, 34.2094 ], [ -83.5111, 34.2398 ], [ -83.5589, 34.2473 ], [ -83.56, 34.2563 ], [ -83.5776, 34.2605 ], [ -83.6505, 34.3226 ], [ -83.6501, 34.3492 ], [ -83.6682, 34.3656 ], [ -83.6444, 34.4134 ], [ -83.6233, 34.4197 ], [ -83.6068, 34.4454 ], [ -83.5858, 34.4517 ], [ -83.5603, 34.4795 ], [ -83.5432, 34.4827 ], [ -83.53, 34.5023 ], [ -83.465, 34.5336 ], [ -83.4587, 34.5586 ], [ -83.4394, 34.5811 ], [ -83.4171, 34.577 ], [ -83.4111, 34.589 ], [ -83.3954, 34.585 ], [ -83.3854, 34.5923 ] ] ] ] } },
{ "type": "Feature", "properties": { "basin": "Chattahoochee", "huc8_units": 2, "huc8_codes": "03130001;03130002", "area_sqkm": 11982.08, "metro_area_sqkm": 4762.3673335460999, "metro_share_pct": 39.745748096708581 }, "geometry": { "type": "MultiPolygon", "coordinates": [ [ [ [ -83.6058, 34.8278 ], [ -83.5875, 34.8205 ], [ -83.5762, 34.7956 ], [ -83.5566, 34.785 ], [ -83.5622, 34.7815 ], [ -83.551, 34.7501 ], [ -83.5368, 34.7486 ], [ -83.5349, 34.7403 ], [ -83.5131, 34.7318 ], [ -83.4653, 34.7235 ], [ -83.4295, 34.7001 ], [ -83.4283, 34.6737 ], [ -83.4173, 34.6618 ], [ -83.4376, 34.6529 ], [ -83.4382, 34.6352 ], [ -83.449, 34.6233 ], [ -83.4458, 34.6138 ], [ -83.4128, 34.6074 ], [ -83.4169, 34.5771 ], [ -83.4398, 34.5809 ], [ -83.4587, 34.5586 ], [ -83.465, 34.5336 ], [ -83.53, 34.5023 ], [ -83.5432, 34.4827 ], [ -83.5603, 34.4795 ], [ -83.5858, 34.4517 ], [ -83.6068, 34.4454 ], [ -83.6233, 34.4197 ], [ -83.6422, 34.4153 ], [ -83.6432, 34.4059 ], [ -83.665, 34.3886 ], [ -83.678, 34.3817 ], [ -83.6848, 34.3904 ], [ -83.7279, 34.3808 ], [ -83.7956, 34.3272 ], [ -83.7898, 34.3105 ], [ -83.8019, 34.2916 ], [ -83.8181, 34.2957 ], [ -83.8246, 34.278 ], [ -83.8478, 34.2574 ], [ -83.8401, 34.2487 ], [ -83.8536, 34.2409 ], [ -83.8604, 34.2217 ], [ -83.8785, 34.2143 ], [ -83.8879, 34.196 ], [ -83.9249, 34.1623 ], [ -83.9409, 34.1063 ], [ -83.9382, 34.0942 ], [ -83.9161, 34.0805 ], [ -83.9251, 34.0504 ], [ -83.9603, 34.0354 ], [ -83.9757, 34.0364 ], [ -83.9828, 34.0494 ], [ -83.9916, 34.0444 ], [ -84.002, 34.0503 ], [ -84.0203, 34.0357 ], [ -84.0424, 34.0334 ], [ -84.068, 34.0002 ], [ -84.0824, 34.0014 ], [ -84.0985, 34.0172 ], [ -84.123, 34.0057 ], [ -84.1424, 34.0054 ], [ -84.1577, 33.9778 ], [ -84.1674, 33.9793 ], [ -84.1709, 33.9719 ], [ -84.1935, 33.9658 ], [ -84.2069, 33.9695 ], [ -84.2077, 33.9475 ], [ -84.2237, 33.9305 ], [ -84.2065, 33.9142 ], [ -84.2055, 33.9014 ], [ -84.2201, 33.886 ], [ -84.2198, 33.8643 ], [ -84.197, 33.8257 ], [ -84.2126, 33.8179 ], [ -84.2329, 33.8196 ], [ -84.2385, 33.8057 ], [ -84.2656, 33.793 ], [ -84.2677, 33.776 ], [ -84.3777, 33.749 ], [ -84.3909, 33.754 ], [ -84.4142, 33.742 ], [ -84.4262, 33.7004 ], [ -84.4459, 33.6743 ], [ -84.4507, 33.6457 ], [ -84.4727, 33.6329 ], [ -84.4745, 33.6234 ], [ -84.5073, 33.6205 ], [ -84.5455, 33.5998 ], [ -84.5542, 33.5784 ], [ -84.5809, 33.5666 ], [ -84.597, 33.5501 ], [ -84.6625, 33.5286 ], [ -84.6925, 33.4542 ], [ -84.7125, 33.4412 ], [ -84.7279, 33.4479 ], [ -84.7542, 33.4339 ], [ -84.7501, 33.406 ], [ -84.778, 33.365 ], [ -84.7891, 33.3617 ], [ -84.7961, 33.3422 ], [ -84.778, 33.3268 ], [ -84.7832, 33.3174 ], [ -84.7464, 33.2482 ], [ -84.7511, 33.2112 ], [ -84.7745, 33.1988 ], [ -84.761, 33.1475 ], [ -84.7931, 33.1315 ], [ -84.7918, 33.1169 ], [ -84.7722, 33.0967 ], [ -84.7892, 33.0552 ], [ -84.7767, 33.0316 ], [ -84.7529, 33.0311 ], [ -84.7561, 33.0163 ], [ -84.7385, 32.9935 ], [ -84.7406, 32.9723 ], [ -84.7252, 32.9576 ], [ -84.73, 32.9361 ], [ -84.741, 32.9288 ], [ -84.7146, 32.8872 ], [ -84.7151, 32.8612 ], [ -84.6999, 32.847 ], [ -84.7054, 32.8321 ], [ -84.6972, 32.8064 ], [ -84.6747, 32.7796 ], [ -84.6741, 32.7658 ], [ -84.6834, 32.7642 ], [ -84.6739, 32.7532 ], [ -84.6727, 32.7121 ], [ -84.6819, 32.6945 ], [ -84.6688, 32.6854 ], [ -84.6688, 32.6654 ], [ -84.6594, 32.657 ], [ -84.7398, 32.6278 ], [ -84.7641, 32.6331 ], [ -84.7848, 32.6253 ], [ -84.806, 32.6311 ], [ -84.8224, 32.6157 ], [ -84.8404, 32.6114 ], [ -84.8506, 32.6167 ], [ -84.8798, 32.5988 ], [ -84.902, 32.5974 ], [ -84.9068, 32.5774 ], [ -84.951, 32.5666 ], [ -84.9453, 32.5599 ], [ -84.9527, 32.5312 ], [ -84.9647, 32.5206 ], [ -84.9758, 32.5231 ], [ -85.018, 32.5093 ], [ -85.0527, 32.5425 ], [ -85.0605, 32.5446 ], [ -85.07, 32.5348 ], [ -85.0937, 32.5361 ], [ -85.1146, 32.5465 ], [ -85.1397, 32.5736 ], [ -85.1672, 32.5847 ], [ -85.1859, 32.5835 ], [ -85.1913, 32.5899 ], [ -85.2037, 32.5854 ], [ -85.2105, 32.5935 ], [ -85.2549, 32.5985 ], [ -85.2804, 32.6267 ], [ -85.3031, 32.6165 ], [ -85.3118, 32.6214 ], [ -85.3188, 32.6116 ], [ -85.3378, 32.6123 ], [ -85.3459, 32.623 ], [ -85.3573, 32.6186 ], [ -85.3697, 32.6239 ], [ -85.3774, 32.6466 ], [ -85.3664, 32.6651 ], [ -85.3734, 32.6775 ], [ -85.3711, 32.7076 ], [ -85.3854, 32.7242 ], [ -85.4007, 32.7284 ], [ -85.4172, 32.7542 ], [ -85.444, 32.7545 ], [ -85.4741, 32.7795 ], [ -85.469, 32.7997 ], [ -85.4486, 32.809 ], [ -85.4369, 32.8469 ], [ -85.4185, 32.8543 ], [ -85.4058, 32.8748 ], [ -85.3935, 32.9299 ], [ -85.403, 32.9534 ], [ -85.3906, 32.9689 ], [ -85.4018, 32.9903 ], [ -85.385, 32.9913 ], [ -85.3481, 33.0198 ], [ -85.347, 33.0465 ], [ -85.3368, 33.0439 ], [ -85.3293, 33.0535 ], [ -85.3406, 33.0968 ], [ -85.3632, 33.116 ], [ -85.3638, 33.1496 ], [ -85.3492, 33.1532 ], [ -85.3155, 33.1978 ], [ -85.3354, 33.2306 ], [ -85.364, 33.2447 ], [ -85.3744, 33.2626 ], [ -85.3392, 33.2859 ], [ -85.3318, 33.2802 ], [ -85.3186, 33.2845 ], [ -85.3032, 33.3027 ], [ -85.2926, 33.3365 ], [ -85.3035, 33.3446 ], [ -85.3002, 33.3679 ], [ -85.289, 33.3841 ], [ -85.2601, 33.3846 ], [ -85.2555, 33.4159 ], [ -85.2233, 33.4365 ], [ -85.1452, 33.4442 ], [ -85.1147, 33.4653 ], [ -85.1094, 33.4824 ], [ -85.086, 33.493 ], [ -85.0642, 33.5434 ], [ -85.0227, 33.5578 ], [ -84.9926, 33.6287 ], [ -84.9727, 33.6389 ], [ -84.9476, 33.6814 ], [ -84.9659, 33.7067 ], [ -84.9098, 33.7295 ], [ -84.9254, 33.7372 ], [ -84.9351, 33.7699 ], [ -84.9623, 33.7741 ], [ -84.9688, 33.787 ], [ -84.9704, 33.8068 ], [ -84.9538, 33.8269 ], [ -84.9563, 33.8365 ], [ -84.9409, 33.836 ], [ -84.9225, 33.8156 ], [ -84.8972, 33.8152 ], [ -84.8447, 33.8571 ], [ -84.8519, 33.8766 ], [ -84.8313, 33.8996 ], [ -84.8239, 33.905 ], [ -84.8115, 33.8986 ], [ -84.7971, 33.9174 ], [ -84.7831, 33.9184 ], [ -84.7651, 33.9438 ], [ -84.7526, 33.9366 ], [ -84.7349, 33.9435 ], [ -84.7092, 33.9387 ], [ -84.6925, 33.9493 ], [ -84.6749, 33.9438 ], [ -84.658, 33.9563 ], [ -84.6412, 33.9917 ], [ -84.6111, 33.9735 ], [ -84.5626, 33.9842 ], [ -84.5493, 33.9737 ], [ -84.5262, 33.9942 ], [ -84.5071, 33.9946 ], [ -84.4897, 34.0247 ], [ -84.4613, 34.034 ], [ -84.4538, 34.0595 ], [ -84.4383, 34.0577 ], [ -84.4244, 34.066 ], [ -84.4154, 34.0598 ], [ -84.3821, 34.062 ], [ -84.3356, 34.098 ], [ -84.308, 34.0921 ], [ -84.3009, 34.0976 ], [ -84.2921, 34.0907 ], [ -84.2713, 34.0972 ], [ -84.2717, 34.1233 ], [ -84.2492, 34.1337 ], [ -84.2533, 34.1475 ], [ -84.2417, 34.1782 ], [ -84.2559, 34.2001 ], [ -84.2668, 34.2032 ], [ -84.2761, 34.2286 ], [ -84.2494, 34.2449 ], [ -84.2311, 34.2364 ], [ -84.1878, 34.244 ], [ -84.1514, 34.2367 ], [ -84.1384, 34.2427 ], [ -84.1394, 34.2489 ], [ -84.1075, 34.2522 ], [ -84.1003, 34.27 ], [ -84.077, 34.2831 ], [ -84.0604, 34.2837 ], [ -84.0515, 34.297 ], [ -84.0351, 34.302 ], [ -84.0507, 34.3241 ], [ -84.0446, 34.339 ], [ -84.0494, 34.3604 ], [ -84.0081, 34.3873 ], [ -84.0142, 34.4029 ], [ -83.9945, 34.4179 ], [ -84.0246, 34.4604 ], [ -84.0203, 34.5033 ], [ -84.0286, 34.5142 ], [ -84.0384, 34.5143 ], [ -84.0388, 34.5233 ], [ -84.0559, 34.5277 ], [ -84.0547, 34.5609 ], [ -84.0685, 34.5811 ], [ -84.0479, 34.606 ], [ -84.0452, 34.6407 ], [ -84.0363, 34.6422 ], [ -84.0242, 34.6702 ], [ -83.9947, 34.6783 ], [ -83.9846, 34.7143 ], [ -83.9395, 34.741 ], [ -83.8787, 34.7229 ], [ -83.8301, 34.7305 ], [ -83.8306, 34.7662 ], [ -83.8138, 34.7885 ], [ -83.8122, 34.8099 ], [ -83.7949, 34.8246 ], [ -83.7121, 34.7906 ], [ -83.667, 34.8064 ], [ -83.6494, 34.8252 ], [ -83.613, 34.8222 ], [ -83.6058, 34.8278 ] ] ] ] } },
{ "type": "Feature", "properties": { "basin": "Coosa_Etowah", "huc8_units": 3, "huc8_codes": "03150102;03150103;03150104", "area_sqkm": 8506.09, "metro_area_sqkm": 3386.2358173836751, "metro_share_pct": 39.809546070917129 }, "geometry": { "type": "MultiPolygon", "coordinates": [ [ [ [ -84.0886, 34.6514 ], [ -84.0713, 34.6572 ], [ -84.0677, 34.6479 ], [ -84.0452, 34.6407 ], [ -84.0479, 34.606 ], [ -84.0684, 34.5804 ], [ -84.0547, 34.5609 ], [ -84.0559, 34.5277 ], [ -84.0388, 34.5233 ], [ -84.0384, 34.5143 ], [ -84.0286, 34.5142 ], [ -84.0203, 34.5033 ], [ -84.0246, 34.4604 ], [ -83.9946, 34.4175 ], [ -84.0142, 34.4029 ], [ -84.0081, 34.3873 ], [ -84.0494, 34.3604 ], [ -84.0446, 34.339 ], [ -84.0507, 34.3241 ], [ -84.0351, 34.3021 ], [ -84.0522, 34.2965 ], [ -84.0589, 34.2846 ], [ -84.077, 34.2831 ], [ -84.1003, 34.27 ], [ -84.1075, 34.2522 ], [ -84.1394, 34.2489 ], [ -84.1384, 34.2427 ], [ -84.1514, 34.2367 ], [ -84.1878, 34.244 ], [ -84.2311, 34.2364 ], [ -84.2494, 34.2449 ], [ -84.2761, 34.2286 ], [ -84.2668, 34.2032 ], [ -84.2559, 34.2001 ], [ -84.2417, 34.1782 ], [ -84.2533, 34.1475 ], [ -84.2492, 34.1337 ], [ -84.2717, 34.1233 ], [ -84.2713, 34.0972 ], [ -84.2921, 34.0907 ], [ -84.3009, 34.0976 ], [ -84.308, 34.0921 ], [ -84.3356, 34.098 ], [ -84.3821, 34.062 ], [ -84.4154, 34.0598 ], [ -84.4244, 34.066 ], [ -84.4383, 34.0577 ], [ -84.4538, 34.0595 ], [ -84.4613, 34.034 ], [ -84.4897, 34.0247 ], [ -84.5071, 33.9946 ], [ -84.5262, 33.9942 ], [ -84.5493, 33.9737 ], [ -84.5626, 33.9842 ], [ -84.6111, 33.9735 ], [ -84.6412, 33.9917 ], [ -84.658, 33.9563 ], [ -84.6749, 33.9438 ], [ -84.6925, 33.9493 ], [ -84.7092, 33.9387 ], [ -84.7349, 33.9435 ], [ -84.7526, 33.9366 ], [ -84.7651, 33.9438 ], [ -84.7831, 33.9184 ], [ -84.7971, 33.9174 ], [ -84.8115, 33.8986 ], [ -84.8239, 33.905 ], [ -84.8313, 33.8996 ], [ -84.8519, 33.8766 ], [ -84.8447, 33.8571 ], [ -84.8977, 33.8151 ], [ -84.9253, 33.8167 ], [ -84.9491, 33.8589 ], [ -84.9609, 33.8562 ], [ -84.9721, 33.865 ], [ -84.9691, 33.8808 ], [ -84.9805, 33.8891 ], [ -84.9799, 33.9027 ], [ -84.9914, 33.9142 ], [ -84.986, 33.9304 ], [ -84.998, 33.9411 ], [ -85.0268, 33.9292 ], [ -85.0447, 33.9413 ], [ -85.0786, 33.9269 ], [ -85.0894, 33.9341 ], [ -85.1053, 33.9159 ], [ -85.1367, 33.9015 ], [ -85.1685, 33.9205 ], [ -85.1776, 33.957 ], [ -85.1935, 33.9623 ], [ -85.2, 33.9886 ], [ -85.1769, 34.0164 ], [ -85.1484, 34.0198 ], [ -85.1425, 34.0544 ], [ -85.1565, 34.0733 ], [ -85.1736, 34.0769 ], [ -85.181, 34.0946 ], [ -85.203, 34.1014 ], [ -85.2022, 34.1119 ], [ -85.2356, 34.1279 ], [ -85.2346, 34.1481 ], [ -85.2102, 34.1612 ], [ -85.2045, 34.2104 ], [ -85.1877, 34.2254 ], [ -85.1767, 34.2556 ], [ -85.1865, 34.2641 ], [ -85.2222, 34.2708 ], [ -85.2246, 34.2842 ], [ -85.2465, 34.2849 ], [ -85.2566, 34.3335 ], [ -85.3299, 34.3097 ], [ -85.3459, 34.3112 ], [ -85.3648, 34.3342 ], [ -85.3332, 34.3708 ], [ -85.2735, 34.3938 ], [ -85.3113, 34.3976 ], [ -85.3566, 34.3898 ], [ -85.2656, 34.5199 ], [ -85.2091, 34.671 ], [ -85.1672, 34.7242 ], [ -85.1409, 34.7191 ], [ -85.1251, 34.7249 ], [ -85.1009, 34.7095 ], [ -85.0822, 34.711 ], [ -85.0687, 34.6892 ], [ -85.0552, 34.6847 ], [ -85.0506, 34.6427 ], [ -85.0384, 34.63 ], [ -85.03, 34.6252 ], [ -85.0075, 34.6425 ], [ -84.9683, 34.6317 ], [ -84.9531, 34.6161 ], [ -84.9526, 34.5925 ], [ -84.9231, 34.5855 ], [ -84.9039, 34.5593 ], [ -84.9033, 34.5441 ], [ -84.8944, 34.5429 ], [ -84.8898, 34.5717 ], [ -84.8708, 34.5922 ], [ -84.8486, 34.6006 ], [ -84.8557, 34.6142 ], [ -84.8358, 34.6345 ], [ -84.8214, 34.6372 ], [ -84.8152, 34.6552 ], [ -84.771, 34.644 ], [ -84.7544, 34.6589 ], [ -84.7505, 34.6778 ], [ -84.7244, 34.68 ], [ -84.7157, 34.7007 ], [ -84.6964, 34.6947 ], [ -84.6496, 34.71 ], [ -84.6568, 34.7286 ], [ -84.6389, 34.7545 ], [ -84.6414, 34.7778 ], [ -84.6101, 34.7906 ], [ -84.5937, 34.808 ], [ -84.5849, 34.8264 ], [ -84.5942, 34.8416 ], [ -84.5644, 34.8759 ], [ -84.5484, 34.8674 ], [ -84.5354, 34.8707 ], [ -84.5229, 34.8471 ], [ -84.5021, 34.8435 ], [ -84.5039, 34.8316 ], [ -84.4919, 34.8254 ], [ -84.4874, 34.8119 ], [ -84.4484, 34.8215 ], [ -84.4201, 34.8496 ], [ -84.4021, 34.8497 ], [ -84.391, 34.8625 ], [ -84.3846, 34.8644 ], [ -84.3816, 34.8565 ], [ -84.3953, 34.8321 ], [ -84.3316, 34.8685 ], [ -84.3238, 34.8462 ], [ -84.3441, 34.8236 ], [ -84.3213, 34.8059 ], [ -84.3214, 34.7883 ], [ -84.3121, 34.7814 ], [ -84.3415, 34.7617 ], [ -84.3387, 34.7328 ], [ -84.327, 34.7255 ], [ -84.2973, 34.7276 ], [ -84.2787, 34.7214 ], [ -84.2647, 34.6942 ], [ -84.2573, 34.6937 ], [ -84.226, 34.654 ], [ -84.1976, 34.6429 ], [ -84.1934, 34.6296 ], [ -84.1712, 34.6371 ], [ -84.1609, 34.6334 ], [ -84.1564, 34.6482 ], [ -84.1416, 34.649 ], [ -84.1282, 34.6643 ], [ -84.0886, 34.6514 ] ] ] ] } },
{ "type": "Feature", "properties": { "basin": "Flint", "huc8_units": 1, "huc8_codes": "03130005", "area_sqkm": 6811.0, "metro_area_sqkm": 1439.9478932448435, "metro_share_pct": 21.14150481933407 }, "geometry": { "type": "MultiPolygon", "coordinates": [ [ [ [ -84.4421, 33.6766 ], [ -84.3933, 33.6512 ], [ -84.3827, 33.6228 ], [ -84.3402, 33.6144 ], [ -84.3326, 33.6072 ], [ -84.3538, 33.5163 ], [ -84.321, 33.4406 ], [ -84.28, 33.4237 ], [ -84.2943, 33.4014 ], [ -84.2824, 33.3837 ], [ -84.2965, 33.3729 ], [ -84.2871, 33.359 ], [ -84.297, 33.347 ], [ -84.2849, 33.3279 ], [ -84.2881, 33.2739 ], [ -84.271, 33.252 ], [ -84.2474, 33.2494 ], [ -84.23, 33.2376 ], [ -84.2138, 33.1886 ], [ -84.2016, 33.1868 ], [ -84.2097, 33.1547 ], [ -84.1966, 33.1492 ], [ -84.1922, 33.131 ], [ -84.1981, 33.0595 ], [ -84.1623, 33.0527 ], [ -84.162, 33.0414 ], [ -84.1331, 33.0246 ], [ -84.1372, 33.0005 ], [ -84.1511, 32.9818 ], [ -84.1517, 32.9585 ], [ -84.14, 32.9453 ], [ -84.1374, 32.9178 ], [ -84.1234, 32.9155 ], [ -84.1097, 32.8921 ], [ -84.0889, 32.8787 ], [ -84.0927, 32.8613 ], [ -84.0752, 32.8461 ], [ -84.069, 32.8224 ], [ -84.0564, 32.8216 ], [ -84.0497, 32.8067 ], [ -84.0186, 32.7916 ], [ -84.0107, 32.7612 ], [ -83.9791, 32.7657 ], [ -83.9692, 32.7608 ], [ -83.9715, 32.7481 ], [ -83.9583, 32.726 ], [ -83.9173, 32.6802 ], [ -83.9237, 32.6603 ], [ -83.9325, 32.66 ], [ -83.9274, 32.6493 ], [ -83.9351, 32.637 ], [ -83.967, 32.6167 ], [ -83.9347, 32.5962 ], [ -83.9451, 32.5699 ], [ -83.9579, 32.5661 ], [ -83.949, 32.5438 ], [ -83.9582, 32.5287 ], [ -83.9533, 32.5162 ], [ -83.9453, 32.5172 ], [ -83.9287, 32.5001 ], [ -83.9346, 32.4846 ], [ -83.9284, 32.4737 ], [ -83.9418, 32.4569 ], [ -84.0026, 32.4472 ], [ -84.0033, 32.4321 ], [ -84.0218, 32.4259 ], [ -84.0199, 32.3922 ], [ -84.01, 32.3745 ], [ -84.02, 32.3424 ], [ -84.0669, 32.3417 ], [ -84.0704, 32.3356 ], [ -84.0911, 32.3485 ], [ -84.1189, 32.3399 ], [ -84.1628, 32.364 ], [ -84.1948, 32.3719 ], [ -84.2049, 32.3719 ], [ -84.2227, 32.3529 ], [ -84.2427, 32.3552 ], [ -84.2545, 32.3482 ], [ -84.2703, 32.3684 ], [ -84.2799, 32.357 ], [ -84.3003, 32.3641 ], [ -84.3027, 32.3715 ], [ -84.3246, 32.3626 ], [ -84.3745, 32.3716 ], [ -84.376, 32.3867 ], [ -84.4027, 32.3991 ], [ -84.4159, 32.421 ], [ -84.4266, 32.4196 ], [ -84.4278, 32.4351 ], [ -84.44, 32.4437 ], [ -84.44, 32.4769 ], [ -84.4291, 32.4802 ], [ -84.4296, 32.499 ], [ -84.4218, 32.5057 ], [ -84.4338, 32.5207 ], [ -84.4293, 32.5444 ], [ -84.4545, 32.5555 ], [ -84.4434, 32.5771 ], [ -84.4589, 32.5887 ], [ -84.4525, 32.5964 ], [ -84.4744, 32.6193 ], [ -84.473, 32.6315 ], [ -84.4889, 32.6329 ], [ -84.5082, 32.6468 ], [ -84.5372, 32.6409 ], [ -84.5615, 32.6446 ], [ -84.5654, 32.6512 ], [ -84.6346, 32.6411 ], [ -84.6356, 32.642 ], [ -84.6317, 32.6485 ], [ -84.6474, 32.6485 ], [ -84.6511, 32.6628 ], [ -84.6595, 32.658 ], [ -84.6683, 32.6646 ], [ -84.6688, 32.6854 ], [ -84.6816, 32.6933 ], [ -84.6727, 32.7125 ], [ -84.6739, 32.7532 ], [ -84.6834, 32.7642 ], [ -84.6741, 32.7658 ], [ -84.6747, 32.7796 ], [ -84.6972, 32.8064 ], [ -84.7054, 32.8321 ], [ -84.6999, 32.847 ], [ -84.7151, 32.8612 ], [ -84.7146, 32.8872 ], [ -84.741, 32.9287 ], [ -84.73, 32.9361 ], [ -84.7252, 32.9576 ], [ -84.7406, 32.9723 ], [ -84.7385, 32.9935 ], [ -84.7561, 33.0163 ], [ -84.7529, 33.0311 ], [ -84.7767, 33.0316 ], [ -84.7892, 33.0552 ], [ -84.7722, 33.0967 ], [ -84.7918, 33.1169 ], [ -84.7931, 33.1315 ], [ -84.761, 33.1475 ], [ -84.7745, 33.1988 ], [ -84.7511, 33.2112 ], [ -84.7464, 33.2482 ], [ -84.7832, 33.3174 ], [ -84.778, 33.3268 ], [ -84.796, 33.343 ], [ -84.7891, 33.3617 ], [ -84.778, 33.365 ], [ -84.7501, 33.406 ], [ -84.7542, 33.4339 ], [ -84.7279, 33.4479 ], [ -84.7125, 33.4412 ], [ -84.6925, 33.4542 ], [ -84.6625, 33.5286 ], [ -84.5962, 33.5506 ], [ -84.5809, 33.5666 ], [ -84.5542, 33.5784 ], [ -84.5455, 33.5998 ], [ -84.508, 33.6202 ], [ -84.4745, 33.6234 ], [ -84.4727, 33.6329 ], [ -84.45, 33.6467 ], [ -84.4421, 33.6766 ] ] ] ] } },
{ "type": "Feature", "properties": { "basin": "Ocmulgee", "huc8_units": 1, "huc8_codes": "03070103", "area_sqkm": 7700.65, "metro_area_sqkm": 2516.6056091563582, "metro_share_pct": 32.680430991622245 }, "geometry": { "type": "MultiPolygon", "coordinates": [ [ [ [ -84.002, 34.0495 ], [ -83.9916, 34.0444 ], [ -83.9828, 34.0494 ], [ -83.9755, 34.0363 ], [ -83.9318, 34.0303 ], [ -83.9316, 34.0122 ], [ -83.8958, 33.9924 ], [ -83.8927, 33.9724 ], [ -83.883, 33.9625 ], [ -83.867, 33.9603 ], [ -83.8551, 33.9399 ], [ -83.823, 33.9255 ], [ -83.8197, 33.907 ], [ -83.8096, 33.9062 ], [ -83.8032, 33.9172 ], [ -83.7907, 33.9106 ], [ -83.7779, 33.8847 ], [ -83.7369, 33.8578 ], [ -83.7359, 33.8485 ], [ -83.7255, 33.8476 ], [ -83.7328, 33.8205 ], [ -83.7001, 33.7766 ], [ -83.702, 33.74 ], [ -83.7122, 33.7249 ], [ -83.7018, 33.6965 ], [ -83.7056, 33.6755 ], [ -83.7274, 33.6332 ], [ -83.754, 33.6215 ], [ -83.7471, 33.5843 ], [ -83.7341, 33.5623 ], [ -83.7423, 33.5358 ], [ -83.7335, 33.5161 ], [ -83.7391, 33.5116 ], [ -83.734, 33.4925 ], [ -83.7451, 33.4737 ], [ -83.7543, 33.4718 ], [ -83.752, 33.4483 ], [ -83.764, 33.4246 ], [ -83.7592, 33.3915 ], [ -83.7484, 33.3823 ], [ -83.7564, 33.3694 ], [ -83.746, 33.3544 ], [ -83.754, 33.343 ], [ -83.753, 33.3167 ], [ -83.7096, 33.2879 ], [ -83.7189, 33.2593 ], [ -83.6828, 33.2494 ], [ -83.6739, 33.2233 ], [ -83.6421, 33.1838 ], [ -83.6387, 33.175 ], [ -83.6479, 33.1701 ], [ -83.6343, 33.1528 ], [ -83.627, 33.1214 ], [ -83.6132, 33.1114 ], [ -83.6165, 33.0925 ], [ -83.607, 33.083 ], [ -83.6066, 33.062 ], [ -83.5657, 33.0615 ], [ -83.535, 33.0309 ], [ -83.5303, 32.9815 ], [ -83.5142, 32.9549 ], [ -83.5101, 32.9233 ], [ -83.5147, 32.9126 ], [ -83.5262, 32.9103 ], [ -83.5341, 32.8907 ], [ -83.518, 32.8811 ], [ -83.5062, 32.8577 ], [ -83.4856, 32.8506 ], [ -83.4633, 32.7886 ], [ -83.4719, 32.7798 ], [ -83.4699, 32.765 ], [ -83.4804, 32.7684 ], [ -83.497, 32.7604 ], [ -83.499, 32.7275 ], [ -83.5145, 32.7171 ], [ -83.5173, 32.7014 ], [ -83.5346, 32.7035 ], [ -83.5431, 32.7148 ], [ -83.5646, 32.7076 ], [ -83.5565, 32.6915 ], [ -83.5632, 32.679 ], [ -83.5593, 32.6509 ], [ -83.6011, 32.6546 ], [ -83.6336, 32.6262 ], [ -83.6535, 32.6326 ], [ -83.6753, 32.6608 ], [ -83.6842, 32.659 ], [ -83.7045, 32.6729 ], [ -83.7194, 32.6592 ], [ -83.7386, 32.6657 ], [ -83.7728, 32.6466 ], [ -83.7816, 32.658 ], [ -83.7909, 32.6557 ], [ -83.8022, 32.6658 ], [ -83.8195, 32.6667 ], [ -83.8189, 32.674 ], [ -83.8375, 32.6754 ], [ -83.8488, 32.6904 ], [ -83.876, 32.6602 ], [ -83.879, 32.6704 ], [ -83.8967, 32.6702 ], [ -83.9043, 32.6816 ], [ -83.9251, 32.6831 ], [ -83.9364, 32.7086 ], [ -83.9468, 32.7123 ], [ -83.971, 32.7468 ], [ -83.9692, 32.7608 ], [ -83.9791, 32.7657 ], [ -84.0107, 32.7612 ], [ -84.0186, 32.7916 ], [ -84.0497, 32.8067 ], [ -84.0564, 32.8216 ], [ -84.069, 32.8224 ], [ -84.0752, 32.8461 ], [ -84.0927, 32.8613 ], [ -84.0889, 32.8787 ], [ -84.1097, 32.8921 ], [ -84.1234, 32.9155 ], [ -84.1374, 32.9178 ], [ -84.14, 32.9453 ], [ -84.1517, 32.9585 ], [ -84.1498, 32.9879 ], [ -84.1372, 33.0005 ], [ -84.1333, 33.0251 ], [ -84.162, 33.0414 ], [ -84.1623, 33.0527 ], [ -84.1981, 33.0595 ], [ -84.2008, 33.0665 ], [ -84.1922, 33.131 ], [ -84.1966, 33.1492 ], [ -84.2097, 33.1547 ], [ -84.2016, 33.1868 ], [ -84.2138, 33.1886 ], [ -84.23, 33.2376 ], [ -84.2474, 33.2494 ], [ -84.271, 33.252 ], [ -84.2881, 33.2739 ], [ -84.2849, 33.3279 ], [ -84.297, 33.347 ], [ -84.2871, 33.359 ], [ -84.2965, 33.3729 ], [ -84.2824, 33.3837 ], [ -84.2943, 33.4014 ], [ -84.28, 33.4237 ], [ -84.321, 33.4406 ], [ -84.3538, 33.5163 ], [ -84.3326, 33.6072 ], [ -84.3402, 33.6144 ], [ -84.3827, 33.6228 ], [ -84.3933, 33.6512 ], [ -84.4411, 33.6726 ], [ -84.4142, 33.742 ], [ -84.3909, 33.754 ], [ -84.3777, 33.749 ], [ -84.2677, 33.776 ], [ -84.2656, 33.793 ], [ -84.2385, 33.8057 ], [ -84.2329, 33.8196 ], [ -84.2126, 33.8179 ], [ -84.197, 33.8257 ], [ -84.2198, 33.8643 ], [ -84.2201, 33.886 ], [ -84.2055, 33.9014 ], [ -84.2065, 33.9142 ], [ -84.2237, 33.9305 ], [ -84.2077, 33.9475 ], [ -84.2069, 33.9695 ], [ -84.1935, 33.9658 ], [ -84.1709, 33.9719 ], [ -84.1674, 33.9793 ], [ -84.1577, 33.9778 ], [ -84.1424, 34.0054 ], [ -84.123, 34.0057 ], [ -84.0985, 34.0172 ], [ -84.0824, 34.0014 ], [ -84.068, 34.0002 ], [ -84.0424, 34.0334 ], [ -84.0203, 34.0357 ], [ -84.002, 34.0495 ] ] ] ] } },
{ "type": "Feature", "properties": { "basin": "Oconee", "huc8_units": 1, "huc8_codes": "03070101", "area_sqkm": 7550.2, "metro_area_sqkm": 531.73442390167304, "metro_share_pct": 7.0426534913204035 }, "geometry": { "type": "MultiPolygon", "coordinates": [ [ [ [ -83.6682, 34.3656 ], [ -83.6501, 34.3492 ], [ -83.6485, 34.3195 ], [ -83.5776, 34.2605 ], [ -83.56, 34.2563 ], [ -83.5575, 34.2467 ], [ -83.5111, 34.2398 ], [ -83.48, 34.2094 ], [ -83.4557, 34.2044 ], [ -83.4456, 34.191 ], [ -83.4095, 34.2026 ], [ -83.3638, 34.1707 ], [ -83.3595, 34.1484 ], [ -83.3409, 34.1193 ], [ -83.3258, 34.1104 ], [ -83.3305, 34.0969 ], [ -83.3129, 34.075 ], [ -83.3267, 34.0479 ], [ -83.3172, 34.0412 ], [ -83.3186, 34.0239 ], [ -83.2971, 33.9934 ], [ -83.299, 33.9855 ], [ -83.2742, 33.9613 ], [ -83.2521, 33.9547 ], [ -83.2106, 33.8973 ], [ -83.1912, 33.8912 ], [ -83.1664, 33.8938 ], [ -83.1575, 33.8862 ], [ -83.1561, 33.8601 ], [ -83.1711, 33.8307 ], [ -83.1613, 33.7914 ], [ -83.1795, 33.7713 ], [ -83.1724, 33.7478 ], [ -83.1524, 33.747 ], [ -83.126, 33.7259 ], [ -83.1225, 33.6877 ], [ -83.1074, 33.6794 ], [ -83.1026, 33.6377 ], [ -83.0877, 33.6179 ], [ -83.1031, 33.5969 ], [ -83.0772, 33.5681 ], [ -83.079, 33.5361 ], [ -83.0437, 33.504 ], [ -83.0168, 33.4908 ], [ -83.0187, 33.4697 ], [ -83.0037, 33.4659 ], [ -82.9975, 33.4476 ], [ -82.991, 33.453 ], [ -82.9812, 33.4491 ], [ -82.9716, 33.4337 ], [ -82.9416, 33.4135 ], [ -82.9343, 33.3997 ], [ -82.9377, 33.3826 ], [ -82.9198, 33.3711 ], [ -82.9335, 33.343 ], [ -82.9682, 33.3165 ], [ -82.9695, 33.2983 ], [ -82.9854, 33.2989 ], [ -82.9951, 33.2838 ], [ -83.0256, 33.2689 ], [ -83.0545, 33.2237 ], [ -83.0802, 33.2169 ], [ -83.1029, 33.2251 ], [ -83.1225, 33.2185 ], [ -83.1308, 33.1878 ], [ -83.1146, 33.1472 ], [ -83.1274, 33.1378 ], [ -83.1796, 33.1348 ], [ -83.1997, 33.1408 ], [ -83.2311, 33.132 ], [ -83.2657, 33.1471 ], [ -83.2958, 33.146 ], [ -83.299, 33.1276 ], [ -83.3409, 33.1306 ], [ -83.3418, 33.1209 ], [ -83.3669, 33.1038 ], [ -83.4046, 33.0942 ], [ -83.4179, 33.0741 ], [ -83.4416, 33.0677 ], [ -83.4514, 33.0561 ], [ -83.4939, 33.0489 ], [ -83.502, 33.0314 ], [ -83.5144, 33.0381 ], [ -83.5355, 33.031 ], [ -83.5764, 33.0659 ], [ -83.6063, 33.0616 ], [ -83.607, 33.083 ], [ -83.6165, 33.0925 ], [ -83.6132, 33.1114 ], [ -83.627, 33.1214 ], [ -83.6343, 33.1528 ], [ -83.6479, 33.1701 ], [ -83.6387, 33.175 ], [ -83.6421, 33.1838 ], [ -83.6739, 33.2233 ], [ -83.6828, 33.2494 ], [ -83.7189, 33.2593 ], [ -83.7096, 33.2879 ], [ -83.753, 33.3167 ], [ -83.754, 33.343 ], [ -83.746, 33.3544 ], [ -83.7564, 33.3694 ], [ -83.7484, 33.3823 ], [ -83.7592, 33.3915 ], [ -83.764, 33.4246 ], [ -83.752, 33.4483 ], [ -83.7543, 33.4718 ], [ -83.7451, 33.4737 ], [ -83.734, 33.4925 ], [ -83.7391, 33.5116 ], [ -83.7335, 33.5161 ], [ -83.7423, 33.5358 ], [ -83.7341, 33.5623 ], [ -83.7471, 33.5843 ], [ -83.754, 33.6215 ], [ -83.7266, 33.6342 ], [ -83.7018, 33.6961 ], [ -83.7122, 33.7249 ], [ -83.702, 33.74 ], [ -83.7001, 33.7766 ], [ -83.7328, 33.8205 ], [ -83.7251, 33.847 ], [ -83.7359, 33.8485 ], [ -83.7369, 33.8578 ], [ -83.7779, 33.8847 ], [ -83.7911, 33.9109 ], [ -83.8032, 33.9172 ], [ -83.8096, 33.9062 ], [ -83.8197, 33.907 ], [ -83.823, 33.9255 ], [ -83.8551, 33.9399 ], [ -83.867, 33.9603 ], [ -83.883, 33.9625 ], [ -83.8927, 33.9724 ], [ -83.8958, 33.9924 ], [ -83.9316, 34.0122 ], [ -83.9315, 34.0302 ], [ -83.954, 34.0354 ], [ -83.942, 34.0475 ], [ -83.9251, 34.0504 ], [ -83.9265, 34.0645 ], [ -83.9176, 34.0675 ], [ -83.9161, 34.0805 ], [ -83.9382, 34.0942 ], [ -83.9409, 34.1063 ], [ -83.9249, 34.1623 ], [ -83.8879, 34.196 ], [ -83.8785, 34.2143 ], [ -83.8604, 34.2217 ], [ -83.8536, 34.2409 ], [ -83.8401, 34.2487 ], [ -83.8478, 34.2574 ], [ -83.8246, 34.278 ], [ -83.8181, 34.2957 ], [ -83.8019, 34.2916 ], [ -83.7898, 34.3105 ], [ -83.7956, 34.3272 ], [ -83.7279, 34.3808 ], [ -83.6848, 34.3904 ], [ -83.678, 34.3817 ], [ -83.6599, 34.3934 ], [ -83.6682, 34.3656 ] ] ] ] } },
{ "type": "Feature", "properties": { "basin": "Tallapoosa", "huc8_units": 1, "huc8_codes": "03150108", "area_sqkm": 3611.62, "metro_area_sqkm": 88.56138566819736, "metro_share_pct": 2.4521235807808508 }, "geometry": { "type": "MultiPolygon", "coordinates": [ [ [ [ -85.0268, 33.9292 ], [ -85.0117, 33.9403 ], [ -84.9881, 33.9349 ], [ -84.9914, 33.9142 ], [ -84.9691, 33.8808 ], [ -84.9721, 33.865 ], [ -84.9414, 33.8507 ], [ -84.9409, 33.836 ], [ -84.9563, 33.8365 ], [ -84.9538, 33.8269 ], [ -84.9704, 33.8068 ], [ -84.9688, 33.787 ], [ -84.9623, 33.7741 ], [ -84.9351, 33.7699 ], [ -84.9254, 33.7372 ], [ -84.9098, 33.7295 ], [ -84.9659, 33.7067 ], [ -84.9475, 33.6824 ], [ -84.9578, 33.6577 ], [ -84.9707, 33.6513 ], [ -84.9738, 33.6379 ], [ -84.9926, 33.6287 ], [ -85.0227, 33.5578 ], [ -85.0647, 33.5429 ], [ -85.0772, 33.504 ], [ -85.0975, 33.4832 ], [ -85.1094, 33.4824 ], [ -85.1153, 33.4647 ], [ -85.1565, 33.4405 ], [ -85.1885, 33.4442 ], [ -85.2292, 33.4345 ], [ -85.2561, 33.4151 ], [ -85.2532, 33.3944 ], [ -85.2601, 33.3846 ], [ -85.2945, 33.3806 ], [ -85.3035, 33.3449 ], [ -85.2926, 33.3376 ], [ -85.2952, 33.3169 ], [ -85.3186, 33.2845 ], [ -85.3318, 33.2802 ], [ -85.3392, 33.2859 ], [ -85.3788, 33.26 ], [ -85.3914, 33.2658 ], [ -85.4072, 33.258 ], [ -85.4376, 33.2631 ], [ -85.4491, 33.2569 ], [ -85.4744, 33.2918 ], [ -85.4994, 33.2891 ], [ -85.5265, 33.3066 ], [ -85.5459, 33.3015 ], [ -85.5682, 33.3123 ], [ -85.5876, 33.3091 ], [ -85.6145, 33.3172 ], [ -85.6264, 33.3368 ], [ -85.6354, 33.3322 ], [ -85.6529, 33.3409 ], [ -85.6592, 33.3367 ], [ -85.6776, 33.3506 ], [ -85.6944, 33.3468 ], [ -85.719, 33.3684 ], [ -85.7358, 33.3682 ], [ -85.7643, 33.3961 ], [ -85.7855, 33.3921 ], [ -85.8038, 33.3705 ], [ -85.8366, 33.3751 ], [ -85.8373, 33.4057 ], [ -85.8274, 33.4129 ], [ -85.811, 33.4733 ], [ -85.8029, 33.471 ], [ -85.7904, 33.4894 ], [ -85.7771, 33.4894 ], [ -85.7434, 33.5332 ], [ -85.6973, 33.5621 ], [ -85.6987, 33.57 ], [ -85.6746, 33.5941 ], [ -85.6761, 33.6046 ], [ -85.657, 33.615 ], [ -85.6551, 33.6279 ], [ -85.6358, 33.643 ], [ -85.6292, 33.6552 ], [ -85.6358, 33.6718 ], [ -85.592, 33.6887 ], [ -85.5846, 33.7113 ], [ -85.5632, 33.7151 ], [ -85.5626, 33.7242 ], [ -85.5477, 33.7325 ], [ -85.544, 33.7557 ], [ -85.521, 33.7731 ], [ -85.5338, 33.7865 ], [ -85.5298, 33.7965 ], [ -85.509, 33.8026 ], [ -85.489, 33.7969 ], [ -85.4904, 33.8099 ], [ -85.4621, 33.8076 ], [ -85.4558, 33.8171 ], [ -85.4312, 33.8241 ], [ -85.3828, 33.8172 ], [ -85.3804, 33.8381 ], [ -85.3674, 33.838 ], [ -85.363, 33.851 ], [ -85.3387, 33.8673 ], [ -85.3504, 33.8754 ], [ -85.3543, 33.8941 ], [ -85.3385, 33.9094 ], [ -85.2991, 33.8953 ], [ -85.2299, 33.914 ], [ -85.216, 33.8985 ], [ -85.1999, 33.9095 ], [ -85.1776, 33.9061 ], [ -85.162, 33.9188 ], [ -85.1371, 33.9014 ], [ -85.1053, 33.9159 ], [ -85.0894, 33.9341 ], [ -85.0789, 33.9268 ], [ -85.051, 33.934 ], [ -85.0473, 33.9408 ], [ -85.0268, 33.9292 ] ] ] ] } }
]
}
